{"type": "FeatureCollection", "features": [ {"type": "Feature", "properties": {"norad_id": 34141, "name": "COSMOS 2251 DEB", "group": "cosmos-2251-debris", "lat": -2.9614170411448737, "lon": 5.952134460283267, "alt_km": 731.6459763791299, "timestamp": "2025-12-24T11:33:00.412453+00:00", "meta": {"OBJECT_NAME": "COSMOS 2251 DEB", "OBJECT_ID": "1993-036LN", "EPOCH": "2025-12-24T01:52:52.839840", "MEAN_MOTION": 14.49348832, "ECCENTRICITY": 0.0046489, "INCLINATION": 74.0112, "RA_OF_ASC_NODE": 7.5586, "ARG_OF_PERICENTER": 89.6823, "MEAN_ANOMALY": 326.7238, "EPHEMERIS_TYPE": 0, "CLASSIFICATION_TYPE": "U", "NORAD_CAT_ID": 34141, "ELEMENT_SET_NO": 999, "REV_AT_EPOCH": 87858, "BSTAR": 0.0013987, "MEAN_MOTION_DOT": 5.394e-05, "MEAN_MOTION_DDOT": 0}, "tle": {"line1": "1 34141U 93036LN  25358.07838935  .00005394  00000+0  13987-2 0  9990", "line2": "2 34141  74.0112   7.5586 0046489  89.6823 326.7238 14.49348832878581"}}, "geometry": {"type": "Point", "coordinates": [5.952134460283267, -2.9614170411448737]}}, {"type": "Feature", "properties": {"norad_id": 34270, "name": "COSMOS 2251 DEB", "group": "cosmos-2251-debris", "lat": -73.51498788233263, "lon": 179.66650667495162, "alt_km": 716.2409166143643, "timestamp": "2025-12-24T11:33:00.412464+00:00", "meta": {"OBJECT_NAME": "COSMOS 2251 DEB", "OBJECT_ID": "1993-036LQ", "EPOCH": "2025-12-24T03:47:14.758944", "MEAN_MOTION": 14.65250987, "ECCENTRICITY": 0.004799, "INCLINATION": 74.0116, "RA_OF_ASC_NODE": 284.6234, "ARG_OF_PERICENTER": 73.967, "MEAN_ANOMALY": 286.6775, "EPHEMERIS_TYPE": 0, "CLASSIFICATION_TYPE": "U", "NORAD_CAT_ID": 34270, "ELEMENT_SET_NO": 999, "REV_AT_EPOCH": 89263, "BSTAR": 0.00068527, "MEAN_MOTION_DOT": 3.726e-05, "MEAN_MOTION_DDOT": 0}, "tle": {"line1": "1 34270U 93036LQ  25358.15780971  .00003726  00000+0  68527-3 0  9996", "line2": "2 34270  74.0116 284.6234 0047990  73.9670 286.6775 14.65250987892633"}}, "geometry": {"type": "Point", "coordinates": [179.66650667495162, -73.51498788233263]}}, {"type": "Feature", "properties": {"norad_id": 34271, "name": "COSMOS 2251 DEB", "group": "cosmos-2251-debris", "lat": 73.95521804918772, "lon": -88.655201616001, "alt_km": 659.9610321321106, "timestamp": "2025-12-24T11:33:00.412475+00:00", "meta": {"OBJECT_NAME": "COSMOS 2251 DEB", "OBJECT_ID": "1993-036LR", "EPOCH": "2025-12-23T18:54:03.787776", "MEAN_MOTION": 14.70993585, "ECCENTRICITY": 0.00182001, "INCLINATION": 74.0195, "RA_OF_ASC_NODE": 177.8583, "ARG_OF_PERICENTER": 231.0975, "MEAN_ANOMALY": 148.2753, "EPHEMERIS_TYPE": 0, "CLASSIFICATION_TYPE": "U", "NORAD_CAT_ID": 34271, "ELEMENT_SET_NO": 999, "REV_AT_EPOCH": 88397, "BSTAR": 0.0021218161, "MEAN_MOTION_DOT": 0.00013043, "MEAN_MOTION_DDOT": 0}, "tle": {"line1": "1 34271U 93036LR  25357.78754384  .00013043  00000+0  21218-2 0  9992", "line2": "2 34271  74.0195 177.8583 0018200 231.0975 148.2753 14.70993585883978"}}, "geometry": {"type": "Point", "coordinates": [-88.655201616001, 73.95521804918772]}}, {"type": "Feature", "properties": {"norad_id": 34273, "name": "COSMOS 2251 DEB", "group": "cosmos-2251-debris", "lat": 60.741412991036526, "lon": 95.70555797202573, "alt_km": 688.1275810554662, "timestamp": "2025-12-24T11:33:00.412485+00:00", "meta": {"OBJECT_NAME": "COSMOS 2251 DEB", "OBJECT_ID": "1993-036LT", "EPOCH": "2025-12-23T22:55:37.017120", "MEAN_MOTION": 14.61319399, "ECCENTRICITY": 0.0013458, "INCLINATION": 74.0358, "RA_OF_ASC_NODE": 65.9823, "ARG_OF_PERICENTER": 191.5668, "MEAN_ANOMALY": 347.9241, "EPHEMERIS_TYPE": 0, "CLASSIFICATION_TYPE": "U", "NORAD_CAT_ID": 34273, "ELEMENT_SET_NO": 999, "REV_AT_EPOCH": 88785, "BSTAR": 0.00089366, "MEAN_MOTION_DOT": 4.393e-05, "MEAN_MOTION_DDOT": 0}, "tle": {"line1": "1 34273U 93036LT  25357.95528955  .00004393  00000+0  89366-3 0  9993", "line2": "2 34273  74.0358  65.9823 0013458 191.5668 347.9241 14.61319399887850"}}, "geometry": {"type": "Point", "coordinates": [95.70555797202573, 60.741412991036526]}}, {"type": "Feature", "properties": {"norad_id": 34274, "name": "COSMOS 2251 DEB", "group": "cosmos-2251-debris", "lat": -57.56726692840845, "lon": 19.10603278596773, "alt_km": 687.6655223001208, "timestamp": "2025-12-24T11:33:00.412495+00:00", "meta": {"OBJECT_NAME": "COSMOS 2251 DEB", "OBJECT_ID": "1993-036LU", "EPOCH": "2025-12-24T03:46:33.624768", "MEAN_MOTION": 14.64904628, "ECCENTRICITY": 0.0021361, "INCLINATION": 74.0035, "RA_OF_ASC_NODE": 46.5676, "ARG_OF_PERICENTER": 195.5945, "MEAN_ANOMALY": 195.2716, "EPHEMERIS_TYPE": 0, "CLASSIFICATION_TYPE": "U", "NORAD_CAT_ID": 34274, "ELEMENT_SET_NO": 999, "REV_AT_EPOCH": 88843, "BSTAR": 0.0010236, "MEAN_MOTION_DOT": 5.465e-05, "MEAN_MOTION_DDOT": 0}, "tle": {"line1": "1 34274U 93036LU  25358.15733362  .00005465  00000+0  10236-2 0  9997", "line2": "2 34274  74.0035  46.5676 0021361 195.5945 195.2716 14.64904628888432"}}, "geometry": {"type": "Point", "coordinates": [19.10603278596773, -57.56726692840845]}}, {"type": "Feature", "properties": {"norad_id": 34276, "name": "COSMOS 2251 DEB", "group": "cosmos-2251-debris", "lat": -72.96329465473863, "lon": -6.220139228205338, "alt_km": 702.7941473420769, "timestamp": "2025-12-24T11:33:00.412506+00:00", "meta": {"OBJECT_NAME": "COSMOS 2251 DEB", "OBJECT_ID": "1993-036LW", "EPOCH": "2025-12-24T03:49:33.682368", "MEAN_MOTION": 14.57298197, "ECCENTRICITY": 0.0022155, "INCLINATION": 74.0234, "RA_OF_ASC_NODE": 63.6086, "ARG_OF_PERICENTER": 209.2919, "MEAN_ANOMALY": 178.6994, "EPHEMERIS_TYPE": 0, "CLASSIFICATION_TYPE": "U", "NORAD_CAT_ID": 34276, "ELEMENT_SET_NO": 999, "REV_AT_EPOCH": 88759, "BSTAR": 0.00069477, "MEAN_MOTION_DOT": 3.126e-05, "MEAN_MOTION_DDOT": 0}, "tle": {"line1": "1 34276U 93036LW  25358.15941762  .00003126  00000+0  69477-3 0  9998", "line2": "2 34276  74.0234  63.6086 0022155 209.2919 178.6994 14.57298197887594"}}, "geometry": {"type": "Point", "coordinates": [-6.220139228205338, -72.96329465473863]}}, {"type": "Feature", "properties": {"norad_id": 34297, "name": "COSMOS 2251 DEB", "group": "cosmos-2251-debris", "lat": 41.23092120513142, "lon": 68.15627824970026, "alt_km": 778.3272678008452, "timestamp": "2025-12-24T11:33:00.412516+00:00", "meta": {"OBJECT_NAME": "COSMOS 2251 DEB", "OBJECT_ID": "1993-036MT", "EPOCH": "2025-12-24T03:04:53.665824", "MEAN_MOTION": 14.36638644, "ECCENTRICITY": 0.0017709, "INCLINATION": 74.0487, "RA_OF_ASC_NODE": 263.3203, "ARG_OF_PERICENTER": 329.9395, "MEAN_ANOMALY": 142.4613, "EPHEMERIS_TYPE": 0, "CLASSIFICATION_TYPE": "U", "NORAD_CAT_ID": 34297, "ELEMENT_SET_NO": 999, "REV_AT_EPOCH": 88228, "BSTAR": 0.00013183, "MEAN_MOTION_DOT": 3.62e-06, "MEAN_MOTION_DDOT": 0}, "tle": {"line1": "1 34297U 93036MT  25358.12839891  .00000362  00000+0  13183-3 0  9999", "line2": "2 34297  74.0487 263.3203 0017709 329.9395 142.4613 14.36638644882284"}}, "geometry": {"type": "Point", "coordinates": [68.15627824970026, 41.23092120513142]}}, {"type": "Feature", "properties": {"norad_id": 34301, "name": "COSMOS 2251 DEB", "group": "cosmos-2251-debris", "lat": -40.19112472433097, "lon": 129.3333766185967, "alt_km": 621.9839049459515, "timestamp": "2025-12-24T11:33:00.412533+00:00", "meta": {"OBJECT_NAME": "COSMOS 2251 DEB", "OBJECT_ID": "1993-036MX", "EPOCH": "2025-12-23T16:23:09.472992", "MEAN_MOTION": 14.85067679, "ECCENTRICITY": 0.00101357, "INCLINATION": 74.0056, "RA_OF_ASC_NODE": 144.9444, "ARG_OF_PERICENTER": 208.3899, "MEAN_ANOMALY": 162.1395, "EPHEMERIS_TYPE": 0, "CLASSIFICATION_TYPE": "U", "NORAD_CAT_ID": 34301, "ELEMENT_SET_NO": 999, "REV_AT_EPOCH": 88563, "BSTAR": 0.0033585593, "MEAN_MOTION_DOT": 0.00028812, "MEAN_MOTION_DDOT": 0}, "tle": {"line1": "1 34301U 93036MX  25357.68274853  .00028812  00000+0  33586-2 0  9994", "line2": "2 34301  74.0056 144.9444 0010135 208.3899 162.1395 14.85067679885634"}}, "geometry": {"type": "Point", "coordinates": [129.3333766185967, -40.19112472433097]}}, {"type": "Feature", "properties": {"norad_id": 34302, "name": "COSMOS 2251 DEB", "group": "cosmos-2251-debris", "lat": -67.99843313835521, "lon": 57.522914569089316, "alt_km": 717.5676555717782, "timestamp": "2025-12-24T11:33:00.412544+00:00", "meta": {"OBJECT_NAME": "COSMOS 2251 DEB", "OBJECT_ID": "1993-036MY", "EPOCH": "2025-12-24T02:06:45.595872", "MEAN_MOTION": 14.39371803, "ECCENTRICITY": 0.0079433, "INCLINATION": 74.1781, "RA_OF_ASC_NODE": 102.8139, "ARG_OF_PERICENTER": 314.8976, "MEAN_ANOMALY": 94.2776, "EPHEMERIS_TYPE": 0, "CLASSIFICATION_TYPE": "U", "NORAD_CAT_ID": 34302, "ELEMENT_SET_NO": 999, "REV_AT_EPOCH": 87884, "BSTAR": 0.0005738, "MEAN_MOTION_DOT": 1.825e-05, "MEAN_MOTION_DDOT": 0}, "tle": {"line1": "1 34302U 93036MY  25358.08802773  .00001825  00000+0  57380-3 0  9992", "line2": "2 34302  74.1781 102.8139 0079433 314.8976  94.2776 14.39371803878849"}}, "geometry": {"type": "Point", "coordinates": [57.522914569089316, -67.99843313835521]}}, {"type": "Feature", "properties": {"norad_id": 34303, "name": "COSMOS 2251 DEB", "group": "cosmos-2251-debris", "lat": 27.66054526694881, "lon": -85.57042957912451, "alt_km": 615.1419477826767, "timestamp": "2025-12-24T11:33:00.412555+00:00", "meta": {"OBJECT_NAME": "COSMOS 2251 DEB", "OBJECT_ID": "1993-036MZ", "EPOCH": "2025-12-24T03:43:30.004896", "MEAN_MOTION": 14.54599842, "ECCENTRICITY": 0.013558, "INCLINATION": 74.0053, "RA_OF_ASC_NODE": 266.4009, "ARG_OF_PERICENTER": 41.9062, "MEAN_ANOMALY": 80.7286, "EPHEMERIS_TYPE": 0, "CLASSIFICATION_TYPE": "U", "NORAD_CAT_ID": 34303, "ELEMENT_SET_NO": 999, "REV_AT_EPOCH": 88128, "BSTAR": 0.001546, "MEAN_MOTION_DOT": 7.443e-05, "MEAN_MOTION_DDOT": 0}, "tle": {"line1": "1 34303U 93036MZ  25358.15520839  .00007443  00000+0  15460-2 0  9995", "line2": "2 34303  74.0053 266.4009 0135580  41.9062  80.7286 14.54599842881284"}}, "geometry": {"type": "Point", "coordinates": [-85.57042957912451, 27.66054526694881]}}]}